[{"OBJECT_NAME":"IRIDIUM 33 DEB","OBJECT_ID":"1997-051MQ","EPOCH":"2026-04-04T22:13:10.478208","MEAN_MOTION":14.79029026,"ECCENTRICITY":0.00172325,"INCLINATION":86.306,"RA_OF_ASC_NODE":262.1183,"ARG_OF_PERICENTER":153.0968,"MEAN_ANOMALY":359.2423,"EPHEMERIS_TYPE":0,"CLASSIFICATION_TYPE":"U","NORAD_CAT_ID":34870,"ELEMENT_SET_NO":999,"REV_AT_EPOCH":90582,"BSTAR":0.0018065864,"MEAN_MOTION_DOT":0.00013421,"MEAN_MOTION_DDOT":0},{"OBJECT_NAME":"IRIDIUM 33 DEB","OBJECT_ID":"1997-051MY","EPOCH":"2026-04-05T05:58:01.536096","MEAN_MOTION":14.67555031,"ECCENTRICITY":0.0025373,"INCLINATION":86.3236,"RA_OF_ASC_NODE":275.718,"ARG_OF_PERICENTER":184.6876,"MEAN_ANOMALY":352.2509,"EPHEMERIS_TYPE":0,"CLASSIFICATION_TYPE":"U","NORAD_CAT_ID":34896,"ELEMENT_SET_NO":999,"REV_AT_EPOCH":89283,"BSTAR":0.0011985,"MEAN_MOTION_DOT":6.854e-5,"MEAN_MOTION_DDOT":0},{"OBJECT_NAME":"IRIDIUM 33 DEB","OBJECT_ID":"1997-051NF","EPOCH":"2026-04-05T20:55:41.096352","MEAN_MOTION":14.60301347,"ECCENTRICITY":0.0070736,"INCLINATION":86.1342,"RA_OF_ASC_NODE":315.107,"ARG_OF_PERICENTER":269.8963,"MEAN_ANOMALY":105.8308,"EPHEMERIS_TYPE":0,"CLASSIFICATION_TYPE":"U","NORAD_CAT_ID":34926,"ELEMENT_SET_NO":999,"REV_AT_EPOCH":88119,"BSTAR":0.0036686,"MEAN_MOTION_DOT":0.00018402,"MEAN_MOTION_DDOT":0},{"OBJECT_NAME":"IRIDIUM 33 DEB","OBJECT_ID":"1997-051NR","EPOCH":"2026-04-05T17:30:42.154848","MEAN_MOTION":14.42602476,"ECCENTRICITY":0.0019769,"INCLINATION":86.3752,"RA_OF_ASC_NODE":8.2347,"ARG_OF_PERICENTER":203.2928,"MEAN_ANOMALY":186.7145,"EPHEMERIS_TYPE":0,"CLASSIFICATION_TYPE":"U","NORAD_CAT_ID":34985,"ELEMENT_SET_NO":999,"REV_AT_EPOCH":88818,"BSTAR":0.00078506,"MEAN_MOTION_DOT":2.631e-5,"MEAN_MOTION_DDOT":0},{"OBJECT_NAME":"IRIDIUM 33 DEB","OBJECT_ID":"1997-051NX","EPOCH":"2026-04-05T08:43:01.433856","MEAN_MOTION":14.48227444,"ECCENTRICITY":0.0010434,"INCLINATION":86.3227,"RA_OF_ASC_NODE":319.3371,"ARG_OF_PERICENTER":73.3105,"MEAN_ANOMALY":286.9243,"EPHEMERIS_TYPE":0,"CLASSIFICATION_TYPE":"U","NORAD_CAT_ID":35051,"ELEMENT_SET_NO":999,"REV_AT_EPOCH":88640,"BSTAR":0.00072244709,"MEAN_MOTION_DOT":2.716e-5,"MEAN_MOTION_DDOT":0},{"OBJECT_NAME":"IRIDIUM 33 DEB","OBJECT_ID":"1997-051NY","EPOCH":"2026-04-05T09:02:23.830080","MEAN_MOTION":14.38660641,"ECCENTRICITY":0.00135747,"INCLINATION":86.3321,"RA_OF_ASC_NODE":331.7824,"ARG_OF_PERICENTER":72.9022,"MEAN_ANOMALY":287.3662,"EPHEMERIS_TYPE":0,"CLASSIFICATION_TYPE":"U","NORAD_CAT_ID":35052,"ELEMENT_SET_NO":999,"REV_AT_EPOCH":88909,"BSTAR":0.00022715037,"MEAN_MOTION_DOT":7.16e-6,"MEAN_MOTION_DDOT":0},{"OBJECT_NAME":"IRIDIUM 33 DEB","OBJECT_ID":"1997-051PF","EPOCH":"2026-04-05T11:03:37.020960","MEAN_MOTION":15.10578705,"ECCENTRICITY":0.0039124,"INCLINATION":86.2099,"RA_OF_ASC_NODE":357.1137,"ARG_OF_PERICENTER":115.6128,"MEAN_ANOMALY":244.9161,"EPHEMERIS_TYPE":0,"CLASSIFICATION_TYPE":"U","NORAD_CAT_ID":35080,"ELEMENT_SET_NO":999,"REV_AT_EPOCH":71389,"BSTAR":0.009222099,"MEAN_MOTION_DOT":0.00158024,"MEAN_MOTION_DDOT":0},{"OBJECT_NAME":"IRIDIUM 33 DEB","OBJECT_ID":"1997-051PM","EPOCH":"2026-04-01T12:47:02.552352","MEAN_MOTION":14.45718193,"ECCENTRICITY":0.001707,"INCLINATION":86.3911,"RA_OF_ASC_NODE":15.8745,"ARG_OF_PERICENTER":131.7502,"MEAN_ANOMALY":228.5163,"EPHEMERIS_TYPE":0,"CLASSIFICATION_TYPE":"U","NORAD_CAT_ID":35297,"ELEMENT_SET_NO":999,"REV_AT_EPOCH":72012,"BSTAR":0.00064810923,"MEAN_MOTION_DOT":2.318e-5,"MEAN_MOTION_DDOT":0},{"OBJECT_NAME":"IRIDIUM 33 DEB","OBJECT_ID":"1997-051PP","EPOCH":"2026-04-05T03:32:22.955424","MEAN_MOTION":14.41919298,"ECCENTRICITY":0.00577153,"INCLINATION":86.2901,"RA_OF_ASC_NODE":343.7918,"ARG_OF_PERICENTER":87.0773,"MEAN_ANOMALY":64.3748,"EPHEMERIS_TYPE":0,"CLASSIFICATION_TYPE":"U","NORAD_CAT_ID":35299,"ELEMENT_SET_NO":999,"REV_AT_EPOCH":87964,"BSTAR":0.0016340823,"MEAN_MOTION_DOT":5.478e-5,"MEAN_MOTION_DDOT":0},{"OBJECT_NAME":"IRIDIUM 33 DEB","OBJECT_ID":"1997-051QA","EPOCH":"2026-04-05T09:12:00.953568","MEAN_MOTION":14.50420004,"ECCENTRICITY":0.00158566,"INCLINATION":86.3577,"RA_OF_ASC_NODE":335.6427,"ARG_OF_PERICENTER":84.5242,"MEAN_ANOMALY":275.7771,"EPHEMERIS_TYPE":0,"CLASSIFICATION_TYPE":"U","NORAD_CAT_ID":35480,"ELEMENT_SET_NO":999,"REV_AT_EPOCH":88678,"BSTAR":0.00074329931,"MEAN_MOTION_DOT":2.927e-5,"MEAN_MOTION_DDOT":0},{"OBJECT_NAME":"IRIDIUM 33 DEB","OBJECT_ID":"1997-051QE","EPOCH":"2026-03-17T21:15:20.359584","MEAN_MOTION":15.08193136,"ECCENTRICITY":0.00146559,"INCLINATION":86.3497,"RA_OF_ASC_NODE":307.8859,"ARG_OF_PERICENTER":134.2984,"MEAN_ANOMALY":225.9457,"EPHEMERIS_TYPE":0,"CLASSIFICATION_TYPE":"U","NORAD_CAT_ID":35484,"ELEMENT_SET_NO":999,"REV_AT_EPOCH":63445,"BSTAR":0.0015955373,"MEAN_MOTION_DOT":0.00024808,"MEAN_MOTION_DDOT":0},{"OBJECT_NAME":"IRIDIUM 33 DEB","OBJECT_ID":"1997-051QJ","EPOCH":"2026-04-05T09:22:03.489024","MEAN_MOTION":14.85935304,"ECCENTRICITY":0.0024752,"INCLINATION":86.3218,"RA_OF_ASC_NODE":248.3367,"ARG_OF_PERICENTER":0.4819,"MEAN_ANOMALY":359.6424,"EPHEMERIS_TYPE":0,"CLASSIFICATION_TYPE":"U","NORAD_CAT_ID":35488,"ELEMENT_SET_NO":999,"REV_AT_EPOCH":89952,"BSTAR":0.0014627314,"MEAN_MOTION_DOT":0.00012865,"MEAN_MOTION_DDOT":0},{"OBJECT_NAME":"IRIDIUM 33 DEB","OBJECT_ID":"1997-051QN","EPOCH":"2026-04-05T06:59:54.486240","MEAN_MOTION":14.85502335,"ECCENTRICITY":0.0010012,"INCLINATION":86.3494,"RA_OF_ASC_NODE":293.7785,"ARG_OF_PERICENTER":131.7397,"MEAN_ANOMALY":228.4685,"EPHEMERIS_TYPE":0,"CLASSIFICATION_TYPE":"U","NORAD_CAT_ID":35616,"ELEMENT_SET_NO":999,"REV_AT_EPOCH":89258,"BSTAR":0.0019436,"MEAN_MOTION_DOT":0.00016837,"MEAN_MOTION_DDOT":0},{"OBJECT_NAME":"IRIDIUM 33 DEB","OBJECT_ID":"1997-051QQ","EPOCH":"2026-04-04T07:46:31.068480","MEAN_MOTION":14.52826493,"ECCENTRICITY":0.00286414,"INCLINATION":86.3345,"RA_OF_ASC_NODE":304.2624,"ARG_OF_PERICENTER":4.0243,"MEAN_ANOMALY":356.1188,"EPHEMERIS_TYPE":0,"CLASSIFICATION_TYPE":"U","NORAD_CAT_ID":35618,"ELEMENT_SET_NO":999,"REV_AT_EPOCH":67028,"BSTAR":0.0005647136,"MEAN_MOTION_DOT":2.353e-5,"MEAN_MOTION_DDOT":0},{"OBJECT_NAME":"IRIDIUM 33 DEB","OBJECT_ID":"1997-051QS","EPOCH":"2026-04-05T11:07:41.134656","MEAN_MOTION":14.41120339,"ECCENTRICITY":0.01327898,"INCLINATION":86.3896,"RA_OF_ASC_NODE":169.3962,"ARG_OF_PERICENTER":241.0681,"MEAN_ANOMALY":117.7149,"EPHEMERIS_TYPE":0,"CLASSIFICATION_TYPE":"U","NORAD_CAT_ID":35620,"ELEMENT_SET_NO":999,"REV_AT_EPOCH":61602,"BSTAR":0.0027767469,"MEAN_MOTION_DOT":9.96e-5,"MEAN_MOTION_DDOT":0},{"OBJECT_NAME":"IRIDIUM 33 DEB","OBJECT_ID":"1997-051QU","EPOCH":"2026-04-03T14:49:11.436672","MEAN_MOTION":15.1667975,"ECCENTRICITY":0.0008661,"INCLINATION":86.1924,"RA_OF_ASC_NODE":207.8616,"ARG_OF_PERICENTER":208.3336,"MEAN_ANOMALY":214.4164,"EPHEMERIS_TYPE":0,"CLASSIFICATION_TYPE":"U","NORAD_CAT_ID":35622,"ELEMENT_SET_NO":999,"REV_AT_EPOCH":89049,"BSTAR":0.0038411,"MEAN_MOTION_DOT":0.00075942,"MEAN_MOTION_DDOT":0}]
