IRIDIUM 33 DEB          
1 34870U 97051MQ  26094.92581572  .00013421  00000+0  18066-2 0  9997
2 34870  86.3060 262.1183 0017232 153.0968 359.2423 14.79029026905829
IRIDIUM 33 DEB          
1 34896U 97051MY  26095.24862889  .00006854  00000+0  11985-2 0  9999
2 34896  86.3236 275.7180 0025373 184.6876 352.2509 14.67555031892833
IRIDIUM 33 DEB          
1 34926U 97051NF  26095.87200343  .00018402  00000+0  36686-2 0  9990
2 34926  86.1342 315.1070 0070736 269.8963 105.8308 14.60301347881194
IRIDIUM 33 DEB          
1 34985U 97051NR  26095.72965457  .00002631  00000+0  78506-3 0  9998
2 34985  86.3752   8.2347 0019769 203.2928 186.7145 14.42602476888185
IRIDIUM 33 DEB          
1 35051U 97051NX  26095.36321104  .00002716  00000+0  72245-3 0  9996
2 35051  86.3227 319.3371 0010434  73.3105 286.9243 14.48227444886402
IRIDIUM 33 DEB          
1 35052U 97051NY  26095.37666470  .00000716  00000+0  22715-3 0  9991
2 35052  86.3321 331.7824 0013574  72.9022 287.3662 14.38660641889097
IRIDIUM 33 DEB          
1 35080U 97051PF  26095.46084515  .00158024  00000+0  92221-2 0  9990
2 35080  86.2099 357.1137 0039124 115.6128 244.9161 15.10578705713896
IRIDIUM 33 DEB          
1 35297U 97051PM  26091.53266843  .00002318  00000+0  64811-3 0  9999
2 35297  86.3911  15.8745 0017070 131.7502 228.5163 14.45718193720122
IRIDIUM 33 DEB          
1 35299U 97051PP  26095.14748791  .00005478  00000+0  16341-2 0  9993
2 35299  86.2901 343.7918 0057715  87.0773  64.3748 14.41919298879642
IRIDIUM 33 DEB          
1 35480U 97051QA  26095.38334437  .00002927  00000+0  74330-3 0  9998
2 35480  86.3577 335.6427 0015856  84.5242 275.7771 14.50420004886781
IRIDIUM 33 DEB          
1 35484U 97051QE  26076.88565231  .00024808  00000+0  15955-2 0  9993
2 35484  86.3497 307.8859 0014655 134.2984 225.9457 15.08193136634458
IRIDIUM 33 DEB          
1 35488U 97051QJ  26095.39031816  .00012865  00000+0  14627-2 0  9996
2 35488  86.3218 248.3367 0024752   0.4819 359.6424 14.85935304899521
IRIDIUM 33 DEB          
1 35616U 97051QN  26095.29160285  .00016837  00000+0  19436-2 0  9997
2 35616  86.3494 293.7785 0010012 131.7397 228.4685 14.85502335892586
IRIDIUM 33 DEB          
1 35618U 97051QQ  26094.32397070  .00002353  00000+0  56471-3 0  9995
2 35618  86.3345 304.2624 0028641   4.0243 356.1188 14.52826493670288
IRIDIUM 33 DEB          
1 35620U 97051QS  26095.46367054  .00009960  00000+0  27767-2 0  9999
2 35620  86.3896 169.3962 0132789 241.0681 117.7149 14.41120339616029
IRIDIUM 33 DEB          
1 35622U 97051QU  26093.61749348  .00075942  00000+0  38411-2 0  9997
2 35622  86.1924 207.8616 0008661 208.3336 214.4164 15.16679750890495
